IRIDIUM 26              
1 24903U 97043A   25357.07204266  .00000335  00000+0  10559-3 0  9993
2 24903  86.3950  31.2194 0002235  98.1189 262.0263 14.37335085483879
IRIDIUM 22              
1 24907U 97043E   25357.15905333  .00000333  00000+0  10745-3 0  9994
2 24907  86.3954  34.8851 0002323  93.8435 266.3027 14.36128533483894
DUMMY MASS 1            
1 24925U 97048A   25357.16769191  .00000404  00000+0  41726-4 0  9993
2 24925  86.3334  47.8804 0006398 175.0882 185.0407 14.87191427533212
DUMMY MASS 2            
1 24926U 97048B   25357.16141302  .00000398  00000+0  41371-4 0  9990
2 24926  86.3333  49.5260 0006618 189.5289 170.5812 14.86941802532984
IRIDIUM 29              
1 24944U 97051A   25356.90430079  .00000361  00000+0  11582-3 0  9997
2 24944  86.3946  64.6756 0002247  90.8317 269.3138 14.36670306480367
IRIDIUM 33              
1 24946U 97051C   25356.18959078  .00000323  00000+0  10633-3 0  9998
2 24946  86.3861  64.2549 0008162 169.1562 190.9812 14.35043647479700
IRIDIUM 28              
1 24948U 97051E   25356.61973603  .00000358  00000+0  11293-3 0  9999
2 24948  86.3951  62.2030 0002257 109.1359 251.0084 14.37570172480917
IRIDIUM 36              
1 24967U 97056C   25356.69290397  .00000392  00000+0  12375-3 0  9995
2 24967  86.3963  93.8000 0002317 100.4690 259.6769 14.37792355479301
